{"spkid": "50601323", "covariance": {"epoch": "2458599.5", "data": [["1.774829908264533E-16", "-2.43069548285677E-16", "1.420045472000153E-14", "3.104783031179762E-14", "-1.507909333131037E-14", "-1.119089438444097E-14"], ["-2.43069548285677E-16", "3.33125099363819E-16", "-1.78383490402452E-14", "-4.300817350931405E-14", "2.263779410380689E-14", "1.533556266200102E-14"], ["1.420045472000153E-14", "-1.78383490402452E-14", "1.502263836846305E-10", "1.19682841487912E-11", "1.382973497678597E-10", "-7.44095570111691E-12"], ["3.104783031179762E-14", "-4.300817350931405E-14", "1.19682841487912E-11", "2.485542924566045E-10", "-2.342515278501819E-10", "9.256990591740577E-12"], ["-1.507909333131037E-14", "2.263779410380689E-14", "1.382973497678597E-10", "-2.342515278501819E-10", "3.71190844484354E-10", "-1.702217963363963E-11"], ["-1.119089438444097E-14", "1.533556266200102E-14", "-7.44095570111691E-12", "9.256990591740577E-12", "-1.702217963363963E-11", "5.19664009017147E-12"]], "elements": [{"label": "e", "value": ".2433614302123038", "title": "eccentricity", "units": null, "name": "e", "sigma": 1.33222742362726e-08}, {"label": "q", "name": "q", "sigma": 1.82517149704848e-08, "units": "au", "title": "perihelion distance", "value": "1.036050282250192"}, {"label": "tp", "sigma": 1.2256687304677e-05, "name": "tp", "title": "time of perihelion passage", "value": "2458365.498510875357", "units": "TDB"}, {"sigma": 1.57656047285413e-05, "name": "om", "title": "longitude of the ascending node", "value": "183.3952127939258", "units": "deg", "label": "node"}, {"label": "peri", "sigma": 1.92663137232932e-05, "name": "w", "title": "argument of perihelion", "value": "15.7056801853176", "units": "deg"}, {"label": "i", "sigma": 2.27961402219136e-06, "name": "i", "title": "inclination", "value": "3.921667502673749", "units": "deg"}], "labels": ["e", "q", "tp", "node", "peri", "i"]}, "elements": [{"label": "e", "units": null, "value": ".2443517660666558", "title": "eccentricity", "sigma": "1.3749E-8", "name": "e"}, {"label": "a", "value": "1.371355434840944", "title": "semi-major axis", "units": "au", "name": "a", "sigma": "1.1827E-9"}, {"sigma": "1.8151E-8", "name": "q", "title": "perihelion distance", "value": "1.036262312432452", "units": "au", "label": "q"}, {"units": "deg", "title": "inclination; angle with respect to x-y ecliptic plane", "value": "3.908943464698551", "name": "i", "sigma": "2.2852E-6", "label": "i"}, {"label": "node", "title": "longitude of the ascending node", "value": "183.1703903315121", "units": "deg", "name": "om", "sigma": "1.5811E-5"}, {"units": "deg", "value": "16.10279339455896", "title": "argument of perihelion", "name": "w", "sigma": "1.9338E-5", "label": "peri"}, {"label": "M", "title": "mean anomaly", "value": "300.6947109646791", "units": "deg", "name": "ma", "sigma": "8.0994E-6"}, {"label": "tp", "sigma": "1.3247E-5", "name": "tp", "units": "TDB", "title": "time of perihelion passage", "value": "2461297.130538772909"}, {"units": "d", "value": "586.5748995427535", "title": "sidereal orbital period", "name": "per", "sigma": "7.5883E-7", "label": "period"}, {"label": "n", "units": "deg/d", "value": ".6137323644101152", "title": "mean motion", "sigma": "7.9397E-10", "name": "n"}, {"label": "Q", "sigma": "1.4717E-9", "name": "ad", "units": "au", "title": "aphelion distance", "value": "1.706448557249435"}], "epoch": "2461200.5"}